H1 CPF 01  gfz 2021 11 11 01  8151 tandemx   
H2 1003001  6202 36605    2021 11 11 00 59 42 2021 11 16 00 00 42   120 1 1  0 0 0
H9
10 0 59530  66222.000000  0   -4363251.319   1110567.058  -5221346.264
10 0 59530  66342.000000  0   -3617252.499   1141104.848  -5757714.234
10 0 59530  66462.000000  0   -2808250.039   1138237.356  -6193468.095
10 0 59530  66582.000000  0   -1950914.582   1101057.126  -6521085.722
10 0 59530  66702.000000  0   -1060731.625   1029511.283  -6734923.757
10 0 59530  66822.000000  0    -153724.012    924412.679  -6831303.455
10 0 59530  66942.000000  0     753829.406    787432.492  -6808566.282
10 0 59530  67062.000000  0    1645678.175    621074.221  -6667101.836
10 0 59530  67182.000000  0    2505885.823    428629.042  -6409342.322
10 0 59530  67302.000000  0    3319108.965    214113.807  -6039725.165
10 0 59530  67422.000000  0    4070867.768    -17808.133  -5564623.853
10 0 59530  67542.000000  0    4747802.418   -261922.344  -4992248.566
10 0 59530  67662.000000  0    5337915.034   -512572.709  -4332516.824
10 0 59530  67782.000000  0    5830790.240   -763783.946  -3596891.658
10 0 59530  67902.000000  0    6217789.070  -1009394.510  -2798191.087
10 0 59530  68022.000000  0    6492212.627  -1243197.676  -1950370.600
10 0 59530  68142.000000  0    6649430.922  -1459086.936  -1068280.965
10 0 59530  68262.000000  0    6686972.044  -1651202.250   -167406.052
10 0 59530  68382.000000  0    6604569.779  -1814073.748    736413.869
10 0 59530  68502.000000  0    6404166.893  -1942759.069   1627268.954
10 0 59530  68622.000000  0    6089873.367  -2032970.714   2489468.590
10 0 59530  68742.000000  0    5667881.114  -2081189.808   3307827.171
10 0 59530  68862.000000  0    5146336.049  -2084762.984   4067938.789
10 0 59530  68982.000000  0    4535172.547  -2041980.734   4756434.519
10 0 59530  69102.000000  0    3845916.423  -1952134.544   5361218.741
10 0 59530  69222.000000  0    3091458.796  -1815553.011   5871681.850
10 0 59530  69342.000000  0    2285805.845  -1633615.158   6278882.043
10 0 59530  69462.000000  0    1443813.146  -1408741.585   6575696.038
10 0 59530  69582.000000  0     580907.613  -1144363.628   6756938.058
10 0 59530  69702.000000  0    -287197.357   -844870.309   6819444.681
10 0 59530  69822.000000  0   -1144787.657   -515534.837   6762125.387
10 0 59530  69942.000000  0   -1976431.465   -162421.988   6585980.111
10 0 59530  70062.000000  0   -2767255.590    207723.108   6294083.047
10 0 59530  70182.000000  0   -3503211.509    587602.750   5891533.261
10 0 59530  70302.000000  0   -4171327.628    969508.710   5385371.667
10 0 59530  70422.000000  0   -4759943.269   1345476.469   4784463.900
10 0 59530  70542.000000  0   -5258919.419   1707449.701   4099350.534
10 0 59530  70662.000000  0   -5659821.655   2047450.796   3342065.451
10 0 59530  70782.000000  0   -5956070.840   2357753.989   2525926.255
10 0 59530  70902.000000  0   -6143059.372   2631057.289   1665299.537
10 0 59530  71022.000000  0   -6218229.729   2860649.367    775343.774
10 0 59530  71142.000000  0   -6181110.868   3040566.466   -128265.363
10 0 59530  71262.000000  0   -6033312.429   3165735.275  -1029619.487
10 0 59530  71382.000000  0   -5778477.066   3232097.758  -1912866.485
10 0 59530  71502.000000  0   -5422191.929   3236715.755  -2762498.336
10 0 59530  71622.000000  0   -4971860.432   3177851.410  -3563629.681
10 0 59530  71742.000000  0   -4436540.116   3055022.480  -4302261.202
10 0 59530  71862.000000  0   -3826750.839   2869031.450  -4965522.216
10 0 59530  71982.000000  0   -3154259.241   2621968.174  -5541888.975
10 0 59530  72102.000000  0   -2431845.931   2317187.433  -6021375.118
10 0 59530  72222.000000  0   -1673058.929   1959262.060  -6395695.230
10 0 59530  72342.000000  0    -891957.739   1553911.607  -6658395.788
10 0 59530  72462.000000  0    -102855.835   1107909.878  -6804955.231
10 0 59530  72582.000000  0     679936.011    628972.313  -6832852.789
10 0 59530  72702.000000  0    1442362.638    125625.429  -6741608.980
10 0 59530  72822.000000  0    2170872.203   -392941.988  -6532792.629
10 0 59530  72942.000000  0    2852651.132   -917042.058  -6209996.470
10 0 59530  73062.000000  0    3475846.693  -1436664.015  -5778782.009
10 0 59530  73182.000000  0    4029771.918  -1941660.154  -5246593.540
10 0 59530  73302.000000  0    4505092.507  -2421941.554  -4622641.618
10 0 59530  73422.000000  0    4893989.641  -2867678.533  -3917754.145
10 0 59530  73542.000000  0    5190295.965  -3269501.295  -3144198.364
10 0 59530  73662.000000  0    5389602.911  -3618697.245  -2315474.668
10 0 59530  73782.000000  0    5489334.930  -3907400.222  -1446083.978
10 0 59530  73902.000000  0    5488788.050  -4128767.161   -551273.906
10 0 59530  74022.000000  0    5389131.711  -4277137.535    353232.541
10 0 59530  74142.000000  0    5193372.818  -4348171.484   1251520.409
10 0 59530  74262.000000  0    4906281.119  -4338961.700   2127771.964
10 0 59530  74382.000000  0    4534279.235  -4248115.384   2966554.297
10 0 59530  74502.000000  0    4085300.365  -4075805.241   3753098.264
10 0 59530  74622.000000  0    3568617.471  -3823789.481   4473564.387
10 0 59530  74742.000000  0    2994646.594  -3495398.720   5115289.901
10 0 59530  74862.000000  0    2374731.806  -3095490.404   5667010.674
10 0 59530  74982.000000  0    1720916.279  -2630373.241   6119056.790
10 0 59530  75102.000000  0    1045703.791  -2107702.961   6463516.448
10 0 59530  75222.000000  0     361817.218  -1536352.740   6694368.238
10 0 59530  75342.000000  0    -318042.140   -926260.016   6807580.508
10 0 59530  75462.000000  0    -981429.754   -288251.905   6801177.027
10 0 59530  75582.000000  0   -1616384.575    366146.916   6675269.038
10 0 59530  75702.000000  0   -2211643.942   1024921.889   6432053.456
10 0 59530  75822.000000  0   -2756843.337   1675788.229   6075777.017
10 0 59530  75942.000000  0   -3242697.925   2306419.262   5612666.995
10 0 59530  76062.000000  0   -3661163.871   2904680.703   5050829.137
10 0 59530  76182.000000  0   -4005576.095   3458866.304   4400111.411
10 0 59530  76302.000000  0   -4270759.546   3957930.090   3671936.439
10 0 59530  76422.000000  0   -4453111.931   4391711.167   2879104.092
10 0 59530  76542.000000  0   -4550654.559   4751145.632   2035566.043
10 0 59530  76662.000000  0   -4563049.660   5028459.821   1156176.826
10 0 59530  76782.000000  0   -4491585.117   5217339.177    256426.641
10 0 59530  76902.000000  0   -4339126.921   5313070.214   -647838.588
10 0 59530  77022.000000  0   -4110038.790   5312652.048  -1540706.725
10 0 59530  77142.000000  0   -3810069.288   5214869.490  -2406489.362
10 0 59530  77262.000000  0   -3446213.113   5020332.147  -3230003.840
10 0 59530  77382.000000  0   -3026548.749   4731474.812  -3996844.262
10 0 59530  77502.000000  0   -2560057.812   4352521.193  -4693632.675
10 0 59530  77622.000000  0   -2056431.181   3889414.048  -5308247.078
10 0 59530  77742.000000  0   -1525867.419   3349714.958  -5830024.481
10 0 59530  77862.000000  0    -978866.413   2742473.505  -6249937.269
10 0 59530  77982.000000  0    -426022.592   2078069.267  -6560738.260
10 0 59530  78102.000000  0     122177.160   1368031.993  -6757073.857
10 0 59530  78222.000000  0     655547.348    624842.295  -6835566.967
10 0 59530  78342.000000  0    1164388.897   -138283.943  -6794869.628
10 0 59530  78462.000000  0    1639661.553   -907626.309  -6635682.759
10 0 59530  78582.000000  0    2073140.036  -1669200.091  -6360744.337
10 0 59530  78702.000000  0    2457554.108  -2409003.774  -5974787.767
10 0 59530  78822.000000  0    2786709.937  -3113271.135  -5484470.290
10 0 59530  78942.000000  0    3055592.304  -3768727.287  -4898270.006
10 0 59530  79062.000000  0    3260443.308  -4362840.260  -4226348.098
10 0 59530  79182.000000  0    3398816.091  -4884062.416  -3480383.095
10 0 59530  79302.000000  0    3469605.036  -5322061.156  -2673378.175
10 0 59530  79422.000000  0    3473049.209  -5667932.979  -1819439.453
10 0 59530  79542.000000  0    3410708.456  -5914392.198   -933530.401
10 0 59530  79662.000000  0    3285412.616  -6055931.935    -31206.734
10 0 59530  79782.000000  0    3101182.951  -6088950.270    871663.278
10 0 59530  79902.000000  0    2863129.674  -6011839.928   1759185.121
10 0 59530  80022.000000  0    2577327.287  -5825037.425   2615728.468
10 0 59530  80142.000000  0    2250669.468  -5531029.162   3426210.783
10 0 59530  80262.000000  0    1890709.328  -5134317.127   4176368.283
10 0 59530  80382.000000  0    1505488.865  -4641345.285   4853011.039
10 0 59530  80502.000000  0    1103362.456  -4060387.505   5444256.024
10 0 59530  80622.000000  0     692816.940  -3401400.063   5939735.755
10 0 59530  80742.000000  0     282292.906  -2675841.266   6330774.872
10 0 59530  80862.000000  0    -119987.384  -1896465.937   6610534.916
10 0 59530  80982.000000  0    -506182.699  -1077097.931   6774127.448
10 0 59530  81102.000000  0    -868984.265   -232383.385   6818695.562
10 0 59530  81222.000000  0   -1201753.057    622472.135   6743460.899
10 0 59530  81342.000000  0   -1498640.839   1471977.056   6549735.998
10 0 59530  81462.000000  0   -1754692.800   2300633.643   6240902.764
10 0 59530  81582.000000  0   -1965930.906   3093220.586   5822357.174
10 0 59530  81702.000000  0   -2129415.997   3835073.815   5301420.076
10 0 59530  81822.000000  0   -2243288.287   4512361.245   4687216.238
10 0 59530  81942.000000  0   -2306785.583   5112347.257   3990520.213
10 0 59530  82062.000000  0   -2320238.093   5623640.417   3223571.035
10 0 59530  82182.000000  0   -2285039.942   6036418.277   2399857.686
10 0 59530  82302.000000  0   -2203597.858   6342624.285   1533880.304
10 0 59530  82422.000000  0   -2079257.733   6536132.440    640890.433
10 0 59530  82542.000000  0   -1916210.964   6612874.773   -263384.205
10 0 59530  82662.000000  0   -1719383.330   6570928.747  -1163025.082
99
